[
    {
        "Altitude(m)": 611967.1552410317,
        "Argument of Periapsis(deg)": 0.0,
        "Eccentricity": 0.0,
        "Inclination(deg)": 60.0,
        "Latitude(deg)": 59.140089762387404,
        "Longitude(deg)": -133.90779581087068,
        "Mean Anomaly(deg)": 98.18179999999998,
        "RAAN(deg)": 220.00000000000003,
        "Satellite Name": "Test1 974",
        "Satellite Number": 974,
        "Semi-Major Axis(m)": 6980739.136638005,
        "Time(s)": 0
    },
    {
        "Altitude(m)": 611934.354471053,
        "Argument of Periapsis(deg)": 0.00010418945913296404,
        "Eccentricity": 0.0,
        "Inclination(deg)": 60.0,
        "Latitude(deg)": 58.98645023698152,
        "Longitude(deg)": -132.7845533294949,
        "Mean Anomaly(deg)": 98.80190614546179,
        "RAAN(deg)": 219.99957995086027,
        "Satellite Name": "Test1 974",
        "Satellite Number": 974,
        "Semi-Major Axis(m)": 6980739.136638005,
        "Time(s)": 10
    }
]